X,Y,description,ADDRESSBUILDINGNAME,ADDRESSSTREETNAME
103.8717045,1.350438172,"Manned collection; E-waste accepted: ICT equipment, Batteries",SONY @ NEX,"23 SERANGOON CENTRAL, NEX, #03-21"
103.8450476,1.300747708,"Manned collection; E-waste accepted: ICT equipment, Batteries",STARHUB @ PLAZA SING,"68 ORCHARD ROAD, STAHUB @ PLAZA SING, #1-36"
103.944388,1.352672316,"Manned collection; E-waste accepted: ICT equipment, Batteries",STARHUB @ TAMPINES,"4 TAMPINES CENTRAL 5, STARHUB @ TAMPINES, #2-27"
103.8717045,1.350438172,"Manned collection; E-waste accepted: ICT equipment, Batteries",M1 @ NEX,"23 SERANGOON CENTRAL, NEX, #B1-56"
103.7467345,1.334898437,"Manned collection; E-waste accepted: ICT equipment, Batteries",M1 @ IMM,"2 JURONG EAST STREET 21, IMM, #01-53"
103.749022,1.35018916,"Manned collection; E-waste accepted: ICT equipment, Batteries",M1 @ WEST MALL,"1 BUKIT BATOK CENTRAL LINK, WEST MALL, #01-16"
103.8509824,1.284339935,"Manned collection; E-waste accepted: ICT equipment, Batteries",M1 @ ONE RAFFLES PLACE,"1 RAFFLES PLACE, ONE RAFFLES PLACE, #02-25"
103.8352403,1.303723214,"Manned collection; E-waste accepted: ICT equipment, Batteries",M1 @ THE PARAGON,"290 ORCHARD ROAD, THE PARAGON, #04-31"
103.944388,1.352672316,"Manned collection; E-waste accepted: ICT equipment, Batteries",M1 @ TAMPINES MALL,"4 TAMPINES CENTRAL 5, TAMPINES MALL, #03-01"
103.7856887,1.436007845,"Manned collection; E-waste accepted: ICT equipment, Batteries",M1 @ CAUSEWAY POINT,"1 WOODLANDS SQUARE, CAUSEWAY POINT, #03-01"
103.854867,1.298469626,"Manned collection; E-waste accepted: ICT equipment, Batteries",M1 @ BUGIS JUNCTION,"80 MIDDLE ROAD, BUGIS JUNCTION, #01-81"
103.9051136,1.301191307,"Manned collection; E-waste accepted: ICT equipment, Batteries",M1 @ PARKWAY PARADE,"80 MARINE PARADE ROAD, PARKWAY PARADE, #02-24"
103.7707683,1.383580441,Bin collection; E-waste accepted: Ink and toner cartridges,FAJAR SHOPPING CENTRE,"445 FARJAR ROAD, FAJAR SHOPPING CENTRE"
103.7661705,1.385295565,Bin collection; E-waste accepted: Ink and toner cartridges,GREENRIDGE SHOPPING CENTRE,"524A JELAPANG ROAD, GREENRIDGE SHOPPING CENTRE"
103.7471825,1.398277194,Bin collection; E-waste accepted: Ink and toner cartridges,YEW TEE SQUARE,"624 CHOA CHU KANG STREET 62, YEW TEE SQUARE"
103.7981198,1.445750775,Bin collection; E-waste accepted: Ink and toner cartridges,WOODLANDS MART,"768 WOODLANDS AVENUE 6, WOODLANDS MART"
103.7951367,1.437679197,Bin collection; E-waste accepted: Ink and toner cartridges,888 PLAZA,"888 WOODLANDS DRIVE 50, 888 PLAZA"
103.8195433,1.453845183,Bin collection; E-waste accepted: Ink and toner cartridges,SEMBAWANG MART,"511 CANBERRA ROAD, SEMBAWANG MART"
103.896597,1.316450168,"Bin collection; E-waste accepted: ICT equipment, Batteries, Lamps",WISMA GEYLANG SERAI,1 ENGKU AMAN TURN
103.8927244,1.317523841,"Bin collection; E-waste accepted: ICT equipment, Batteries, Lamps",PAYA LEBAR QUARTER (PLQ),"10 PAYA LEBAR ROAD, PAYA LEBAR QUARTER (PLQ)"
103.9003124,1.383492334,"Bin collection; E-waste accepted: ICT equipment, Batteries, Lamps",RIVERVALE COURT RC,"110 RIVERVALE WALK, RIVERVALE COURT RC"
103.905022,1.38814105,"Bin collection; E-waste accepted: ICT equipment, Batteries, Lamps",RIVERVALE SPRING RC,"135 RIVERVALE STREET, RIVERVALE SPRING RC, #01-730"
103.905459,1.394540678,"Bin collection; E-waste accepted: ICT equipment, Batteries, Lamps",RIVERVALE VISTA RC,"188B RIVERVALE DRIVE, RIVERVALE VISTA RC, 01-1076"
103.8939236,1.388313108,"Bin collection; E-waste accepted: ICT equipment, Batteries, Lamps",COMPASSVALE SOUTHGATE RC,"201B COMPASSVALE DRIVE, COMPASSVALE SOUTHGATE RC, #01-545"
103.9096604,1.389491499,"Bin collection; E-waste accepted: ICT equipment, Batteries, Lamps",RIVERVALE ARC RC,"180C RIVERVALE CRESCENT, RIVERVALE ARC RC, #01-367"
103.8975474,1.386818289,"Bin collection; E-waste accepted: ICT equipment, Batteries, Lamps",COMPASSVALE VILLA RC,"206C COMPASSVALE LANE, COMPASSVALE VILLA RC"
103.8866657,1.397127918,"Bin collection; E-waste accepted: ICT equipment, Batteries, Lamps",ANCHORVALE CC,"59 ANCHORVALE ROAD, ANCHORVALE COMMUNITY CLUB"
103.9072886,1.403284291,"Bin collection; E-waste accepted: ICT equipment, Batteries, Lamps",PUNGGOL VISTA CC,"602 PUNGGOL CENTRAL, PUNGGOL VISTA CC"
103.9089738,1.397404207,"Bin collection; E-waste accepted: ICT equipment, Batteries, Lamps",PUNGGOL OASIS RC,"176C EDGEFIELD PLAINS, PUNGGOL OASIS RC, #01-569"
103.9029109,1.398778268,"Bin collection; E-waste accepted: ICT equipment, Batteries, Lamps",PUNGGOL CLOVER RN,"204A  204A PUNGGOL FIELD, PUNGGOL CLOVER RN, #01-288"
103.8956649,1.404515901,"Bin collection; E-waste accepted: ICT equipment, Batteries, Lamps",PUNGGOL WEST CC,"259C PUNGGOL FIELD, PUNGGOL WEST CC"
103.8983589,1.403313772,"Bin collection; E-waste accepted: ICT equipment, Batteries, Lamps",PUNGGOL SAPPHIRALD RN,"268D PUNGGOL FIELD, PUNGGOL SAPPHIRALD RN, #01-173"
103.9134641,1.393606242,"Bin collection; E-waste accepted: ICT equipment, Batteries, Lamps",PUNGGOL 21 CC,"80 PUNGGOL FIELD, PUNGGOL 21 CC"
103.8238528,1.304843432,"Bin collection; E-waste accepted: Batteries, Lamps",COLD STORAGE@TANGLIN MALL,"163 TANGLIN ROAD, TANGLIN MALL, #B1-01"
103.8376844,1.301385095,"Manned collection; E-waste accepted: ICT equipment, Batteries",SONY @ 313 SOMERSET,"313 ORCHARD ROAD, 313 SOMERSET, #02-28"
103.8331896,1.303698902,"Manned collection; E-waste accepted: ICT equipment, Batteries",SONY @ WISMA ATRIA,"435 ORCHARD ROAD, WISMA ATRIA, #03-01"
103.7705588,1.376450749,"Bin collection; E-waste accepted: ICT equipment, Batteries, Lamps",BUKIT PANJANG CC,8 PENDING ROAD
103.7681537,1.318815188,"Bin collection; E-waste accepted: ICT equipment, Batteries, Lamps",CLEMENTI CC,220 CLEMENTI AVENUE 4
103.7985076,1.431098069,"Bin collection; E-waste accepted: Batteries, Lamps",SHENG SIONG @  573 WOODLANDS,"BLK 573 WOODLANDS DRIVE 16, #02-01"
103.7760233,1.435158946,"Bin collection; E-waste accepted: Batteries, Lamps",SHENG SIONG @  128 WOODLANDS,"BLK 182 WOODLANDS ST 13, #01-01"
103.7860494,1.30811886,"Bin collection; E-waste accepted: Batteries, Lamps",SHENG SIONG @  25 GHIM MOH,"BLK 25 GHIM MOH LINK, #01-11"
103.8434132,1.370188598,"Bin collection; E-waste accepted: Batteries, Lamps",SHENG SIONG @  122 ANG MO KIO,"BLK 122 ANG MO KIO AVE 3, #01-1753"
103.8367406,1.367549242,"Bin collection; E-waste accepted: Batteries, Lamps",SHENG SIONG @  233 ANG MO KIO,"BLK 233 ANG MO KIO AVE 3, #01-1168"
103.7713506,1.314278598,"Bin collection; E-waste accepted: Batteries, Lamps",SHENG SIONG @  352 CLEMENTI,"BLK 352 CLEMENTI AVE 2, #01-91"
103.7157595,1.352393579,"Bin collection; E-waste accepted: Batteries, Lamps",SHENG SIONG @  544 JURONG WEST,"BLK 544 JURONG WEST ST 42, #01-97"
103.7540714,1.378297682,"Bin collection; E-waste accepted: Batteries, Lamps",SHENG SIONG @  18 TECK WHYE,"BLK 18 TECK WHYE LANE, #01-95"
103.7436981,1.347371798,"Bin collection; E-waste accepted: Batteries, Lamps",SHENG SIONG @  154A BUKIT BATOK WEST,"BLK 154A BUKIT BATOK WEST AVE 8, #01-01"
103.7695754,1.38824021,"Bin collection; E-waste accepted: Batteries, Lamps",SHENG SIONG @  SEGAR,"BLK 547 SEGAR ROAD, #01-06"
103.7710296,1.384005823,"Bin collection; E-waste accepted: Batteries, Lamps",SHENG SIONG @  FAJAR,"BLK 446 FAJAR RD, #01-01"
103.7064609,1.339830153,"Bin collection; E-waste accepted: ICT equipment, Batteries, Lamps",COURTS @ JURONG POINT,"1 JURONG WEST CENTRAL, JURONG POINT, #02-05"
103.8936616,1.372311856,"Bin collection; E-waste accepted: ICT equipment, Batteries, Lamps",HARVEY NORMAN @ HOUGANG MALL,"90 HOUGANG AVENUE 10, HOUGANG MALL, #04-15"
103.7064609,1.339830153,"Bin collection; E-waste accepted: ICT equipment, Batteries, Lamps",HARVEY NORMAN @ JURONG POINT,"1 JURONG WEST CENTRAL 2, JURONG POINT, #03-37"
103.8760677,1.391393058,"Bin collection; E-waste accepted: ICT equipment, Batteries, Lamps",HARVEY NORMAN @ SELETAR MALL,"33 SENGKANG WEST AVE, SELETAR MALL, #03-25"
103.839759,1.301978366,"Bin collection; E-waste accepted: ICT equipment, Batteries, Lamps",HARVEY NORMAN @ THE CENTREPOINT,"176 ORCHARD ROAD, THE CENTREPOINT, #03-31"
103.8717045,1.350438172,"Bin collection; E-waste accepted: ICT equipment, Batteries, Lamps",CHALLENGER @ NEX MALL,"23 SERANGOON CENTRAL, NEX MALL, #03-33/34"
103.7525271,1.381116676,"Bin collection; E-waste accepted: ICT equipment, Batteries, Lamps",TECK WHYE LANE,146 TECK WHYE AVENUE
103.8497961,1.331994558,"Bin collection; E-waste accepted: ICT equipment, Batteries, Lamps",COURTS @ 460 TOA PAYOH LORONG 6,460 TOA PAYOH LORONG 6
103.7892112,1.312009409,"Bin collection; E-waste accepted: ICT equipment, Batteries, Lamps",ULU PANDAN CC,170 GHIM MOH ROAD
103.7648321,1.30264556,"Bin collection; E-waste accepted: ICT equipment, Batteries, Lamps",WEST COAST CC,2 CLEMENTI WEST STREET 2
103.7370659,1.339972853,"Bin collection; E-waste accepted: ICT equipment, Batteries, Lamps",YUHUA CC,90 BOON LAY WAY
103.7989319,1.274941015,"Bin collection; E-waste accepted: ICT equipment, Batteries, Lamps",MAPLETREE BUSINESS CITY,"10 PASIR PANJANG ROAD, CLUNY COURT"
103.9492944,1.34068474,"Bin collection; E-waste accepted: ICT equipment, Batteries, Lamps",CHANGI GENERAL HOSPITAL,"2 SIMEI STREET 3, ADMIRALTY PLACE"
103.8635979,1.302795218,"Bin collection; E-waste accepted: ICT equipment, Batteries, Lamps",KAMPONG GLAM CC,"385 BEACH ROAD, KAMPONG GLAM CC"
103.808062,1.318832251,"Bin collection; E-waste accepted: ICT equipment, Batteries, Lamps",FARRER GARDENS RC,"4 QUEEN’S ROAD, FARRER GARDENS RC"
103.8877274,1.353138716,"Bin collection; E-waste accepted: ICT equipment, Batteries, Lamps",PAYA LEBAR ZONE 5 RC,"116 HOUGANG AVENUE 1, PAYA LEBAR ZONE 5 RC, #01-1206"
103.6966388,1.336891367,"Bin collection; E-waste accepted: ICT equipment, Batteries, Lamps",PIONEER ZONE 12 RN,"653A JURONG WEST ST 61, PIONEER ZONE 12 RN, #01-422"
103.7393031,1.35572308,"Bin collection; E-waste accepted: Batteries, Lamps",SHENG SIONG @  BUKIT BATOK WEST,"BLK 440 BUKIT BATOK WEST AVE 8, #01-10"
103.7553752,1.344498104,"Bin collection; E-waste accepted: Batteries, Lamps",SHENG SIONG @  292 BUKIT BATOK EAST AVENUE,"BLK 292 BUKIT BATOK EAST AVENUE 6, #01-02"
103.7751648,1.443151202,"Bin collection; E-waste accepted: Batteries, Lamps",SHENG SIONG @  MARSILING DRIVE 202,"BLK 202 MARSILING DRIVE, #01-138"
103.7600416,1.380605125,"Bin collection; E-waste accepted: Batteries, Lamps",SHENG SIONG @  JUNCTION TEN,"NO.1 WOODLANDS ROADS, #01-07"
103.8360537,1.351844984,"Bin collection; E-waste accepted: Batteries, Lamps",SHENG SIONG @  200 UPPER THOMSON,"200 UPP THOMSON RD, #B1-01"
103.8097586,1.295319658,"Bin collection; E-waste accepted: Batteries, Lamps",SHENG SIONG @  DAWSON,"BLK 85 DAWSON ROAD, #01-01"
103.7950489,1.439955074,"Bin collection; E-waste accepted: ICT equipment, Batteries, Lamps",WOODLANDS ZONE 4 RN,"862 WOODLANDS STREET 83, WOODLANDS ZONE 4 RN, #01-184"
103.7906028,1.444796292,"Bin collection; E-waste accepted: ICT equipment, Batteries, Lamps",WOODLANDS ZONE 3 RN,"876 WOODLANDS STREET 83, WOODLANDS ZONE 3 RN"
103.8457652,1.373433684,"Bin collection; E-waste accepted: ICT equipment, Batteries, Lamps",COURTS @ ANG MO KIO AVE 6,730 ANG MO KIO AVE 6
103.8717045,1.350438172,"Bin collection; E-waste accepted: ICT equipment, Batteries, Lamps",COURTS @ NEX MALL,"23 SERANGOON CENTRAL, NEX MALL, #02-49/50"
103.9338059,1.373623359,"Bin collection; E-waste accepted: ICT equipment, Batteries, Lamps",COURTS @ COURTS MEGASTORE,"50 TAMPINES NORTH DRIVE 2, COURTS MEGASTORE"
103.8483992,1.369248913,"Bin collection; E-waste accepted: ICT equipment, Batteries, Lamps",FAIRPRICE @ ANG MO KIO HUB,"53 ANG MO KIO AVE 3, ANG MO KIO HUB, #B2-40"
103.8499848,1.291244,"Bin collection; E-waste accepted: ICT equipment, Batteries, Lamps",LENOVO FLAGSHIP @ FUNAN MALL,"107 NORTH BRIDGE ROAD, FUNAN MALL, #03-19/20"
103.8050324,1.282431346,"Bin collection; E-waste accepted: ICT equipment, Batteries, Lamps",HEWLETT-PACKARD @ HP ENTERPRISE,"1 DEPOT CLOSE, HP ENTERPRISE"
103.8434632,1.31733463,"Bin collection; E-waste accepted: ICT equipment, Batteries, Lamps",MEGADISCOUNTSTORE @ UNITED SQUARE,"101 THOMSON ROAD, UNITED SQUARE, #B1-56D/E"
103.8324092,1.448855645,"Bin collection; E-waste accepted: ICT equipment, Batteries, Lamps",SHENG SIONG @ EAST BROOK @ CANBERRA,"105 CANBERRA ST, EAST BROOK @ CANBERRA, #02-05"
103.8013051,1.299150228,"Bin collection; E-waste accepted: ICT equipment, Batteries, Lamps",QUEENSTOWN CC,365 COMMONWEALTH AVE
103.8144483,1.289787119,"Bin collection; E-waste accepted: ICT equipment, Batteries, Lamps",LENG KEE CC,400 LENGKOK BAHRU
103.7447279,1.394917584,"Bin collection; E-waste accepted: ICT equipment, Batteries, Lamps",YEW TEE CC,"20 CHOA CHU KANG STREET 52, YEW TEE CC"
103.7850069,1.431771022,"Bin collection; E-waste accepted: ICT equipment, Batteries, Lamps",WOODGROVE CC,"353 WOODLANDS AVENUE 1, WOODGROVE CC"
103.7969989,1.435426085,"Bin collection; E-waste accepted: ICT equipment, Batteries, Lamps",WOODLANDS ZONE 7 RN,"611 WOODLANDS RING ROAD, WOODLANDS ZONE 7 RN"
103.8031925,1.436717378,"Bin collection; E-waste accepted: ICT equipment, Batteries, Lamps",WOODLANDS ZONE 8 RN,"638 WOODLANDS RING ROAD, WOODLANDS ZONE 8 RN"
103.7991179,1.436985956,"Bin collection; E-waste accepted: ICT equipment, Batteries, Lamps",WOODLANDS ZONE 9 RN,"656 WOODLANDS RING ROAD, WOODLANDS ZONE 9 RN"
103.7934746,1.443302597,"Bin collection; E-waste accepted: ICT equipment, Batteries, Lamps",WOODLANDS ZONE 2 RN,"846 WOODLANDS AVENUE 4, WOODLANDS ZONE 2 RN"
103.7968465,1.450749724,"Bin collection; E-waste accepted: Batteries, Lamps",SHENG SIONG @  200 WOODLANDS IND PARK,"200 WOODLANDS INDUSTRIAL PARK E7, #01-30"
103.7980217,1.302038017,"Bin collection; E-waste accepted: Batteries, Lamps",SHENG SIONG @  88 TANGLIN HALT,"BLK 88 TANGLIN HALT ROAD, #01-10"
103.8719964,1.375634996,"Bin collection; E-waste accepted: Batteries, Lamps",SHENG SIONG @  19 SERANGOON,"19 SERANGOON NORTH AVE 5, #01-01"
103.7252215,1.325468071,"Bin collection; E-waste accepted: Batteries, Lamps",SHENG SIONG @  3 YUAN CHING,"3 YUAN CHING RD, #01-01A/02"
103.7735157,1.431505265,"Bin collection; E-waste accepted: Batteries, Lamps",SHENG SIONG @  301 WOODLANDS,"BLK 301 WOODLANDS ST 31, #01-217"
103.7382928,1.322136358,"Bin collection; E-waste accepted: Batteries, Lamps",SHENG SIONG @  61 TEBAN GARDENS RD,"BLK 61 TEBAN GARDENS RD, #01-21"
103.8415801,1.287082778,"Bin collection; E-waste accepted: Batteries, Lamps",SHENG SIONG @  52 CHIN SWEE,"BLK 52 CHIN SWEE RD, #01-25"
103.8361041,1.310567453,"Bin collection; E-waste accepted: ICT equipment, Batteries, Lamps",ENVIRONMENT BUILDING (MSE/NEA),40 SCOTTS ROAD
103.9151436,1.332552778,"Bin collection; E-waste accepted: ICT equipment, Batteries, Lamps",EUNOS CC,180 BEDOK RESERVOIR ROAD
103.9466027,1.357364788,"Bin collection; E-waste accepted: ICT equipment, Batteries, Lamps",TAMPINES NORTH CC,2 TAMPINES STREET 41
103.9476878,1.345813346,"Bin collection; E-waste accepted: ICT equipment, Batteries, Lamps",TAMPINES CHANGKAT CC,13 TAMPINES STREET 11
103.8860921,1.357798605,"Bin collection; E-waste accepted: ICT equipment, Batteries, Lamps",PAYA LEBAR KOVAN CC,207 HOUGANG STREET 21
103.8739276,1.370054862,"Bin collection; E-waste accepted: ICT equipment, Batteries, Lamps",SERANGOON CC,10 SERANGOON NORTH AVENUE 2
103.8414281,1.381517272,"Bin collection; E-waste accepted: ICT equipment, Batteries, Lamps",YIO CHU KANG CC,50 ANG MO KIO STREET 61
103.8535361,1.363088679,"Bin collection; E-waste accepted: ICT equipment, Batteries, Lamps",TECK GHEE CC,ANG MO KIO AVENUE 10
103.8376124,1.373007499,"Bin collection; E-waste accepted: ICT equipment, Batteries, Lamps",KEBUN BARU CC,ANG MO KIO AVENUE 4
103.8406681,1.366833481,"Bin collection; E-waste accepted: ICT equipment, Batteries, Lamps",ANG MO KIO CC,ANG MO KIO AVENUE 1
103.8559236,1.29981639,"Bin collection; E-waste accepted: ICT equipment, Batteries, Lamps",BUGIS JUNCTION TOWERS,230 VICTORIA STREET
103.7431704,1.33320021,"Bin collection; E-waste accepted: ICT equipment, Batteries, Lamps",FAIRPRICE @ JEM,"50 JURONG GATEWAY RD, JEM, #B1-21/22 & #B3-01"
103.7467345,1.334898437,"Bin collection; E-waste accepted: ICT equipment, Batteries, Lamps",IMM,2 JURONG EAST STREET 21
103.7401672,1.333330399,"Bin collection; E-waste accepted: ICT equipment, Batteries, Lamps",CAPITALAND JCUBE,2 JURONG EAST CENTRAL 1
103.7002192,1.339253396,"Bin collection; E-waste accepted: ICT equipment, Batteries, Lamps",PIONEER ZONE 9 RN,602 JURONG WEST ST 65
103.7449504,1.385068357,"Bin collection; E-waste accepted: ICT equipment, Batteries, Lamps",LOT ONE SHOPPERS' MALL,21 CHOA CHU KANG AVE 4
103.8415842,1.27616698,"Bin collection; E-waste accepted: ICT equipment, Batteries, Lamps",TANJONG PAGAR CC,101 CANTONMENT ROAD
103.8190271,1.264997588,"Bin collection; E-waste accepted: ICT equipment, Batteries, Lamps",HARBOURFRONT TOWER ONE,1 HARBOURFRONT PLACE
103.8187326,1.262063364,"Bin collection; E-waste accepted: ICT equipment, Batteries, Lamps",HARBOURFRONT CENTRE,1 MARITIME SQUARE
103.8280048,1.28630853,"Bin collection; E-waste accepted: ICT equipment, Batteries, Lamps",CENTRAL PLAZA,298 TIONG BAHRU ROAD
103.8502045,1.334934517,"Bin collection; E-waste accepted: ICT equipment, Batteries, Lamps",TOA PAYOH CENTRAL CC,93 TOA PAYOH CENTRAL
103.859379,1.33489037,"Bin collection; E-waste accepted: ICT equipment, Batteries, Lamps",TOA PAYOH SOUTH CC,1999 LORONG 8 TOA PAYOH
103.8547002,1.336274892,"Bin collection; E-waste accepted: ICT equipment, Batteries, Lamps",TOA PAYOH EAST CC,160 LORONG 6 TOA PAYOH
103.8576755,1.294879041,"Bin collection; E-waste accepted: ICT equipment, Batteries, Lamps",HARVEY NORMAN @ SUNTEC CITY MALL,"3 TEMASEK BOULEVARD, SUNTEC CITY MALL, #01-634"
103.92098,1.323159292,"Bin collection; E-waste accepted: ICT equipment, Batteries, Lamps",HARVEY NORMAN @ VIVA BUSINESS PARK,"750B CHAI CHEE ROAD #01-01 TO 06, TO 12, #02-02 TO 06 BUSINESS PARK, #01-09"
103.749022,1.35018916,"Bin collection; E-waste accepted: ICT equipment, Batteries, Lamps",HARVEY NORMAN @ WEST MALL,"1 BUKIT BATOK CENTRAL LINK, WEST MALL, #03-06 TO 09"
103.742586,1.334025287,"Bin collection; E-waste accepted: ICT equipment, Batteries, Lamps",HARVEY NORMAN @ WESTGATE,"3 GATEWAY DRIVE, WESTGATE, #B1-32"
103.8761527,1.302221771,"Bin collection; E-waste accepted: ICT equipment, Batteries, Lamps",MEGADISCOUNTSTORE @ KALLANG LEISURE PARK,"5 STADIUM WALK, KALLANG LEISURE PARK, #01-46-50"
103.8158285,1.285254266,"Bin collection; E-waste accepted: ICT equipment, Batteries, Lamps",BUKIT MERAH CC,4000 JALAN BUKIT MERAH
103.7639619,1.380517328,"Bin collection; E-waste accepted: ICT equipment, Batteries, Lamps",BUKIT PANJANG PLAZA,"1 JELEBU ROAD, BUKIT PANJANG PLAZA, #04-03"
103.8703186,1.321885568,Bin collection; E-waste accepted: Ink and toner cartridges,70 GEYLANG BAHRU,"70 GEYLANG BAHRU, 70 GEYLANG BAHRU"
103.865597,1.335760291,Bin collection; E-waste accepted: Ink and toner cartridges,HDB-POTONG PASIR,"121 POTONG PASIR AVENUE,  HDB-POTONG PASIR"
103.8925506,1.31867575,Bin collection; E-waste accepted: Ink and toner cartridges,PAYA LEBAR SQUARE,"60 PAYA LEBAR RD, PAYA LEBAR SQUARE"
103.7654765,1.312481082,Bin collection; E-waste accepted: Ink and toner cartridges,COURTS@CLEMENTI,"415 CLEMENTI AVENUE 3, #01-309"
103.9646178,1.367000538,Bin collection; E-waste accepted: Ink and toner cartridges,LOYANG POINT,"259 PASIR RIS STREET 21, LOYANG POINT"
103.9422815,1.377909453,Bin collection; E-waste accepted: Ink and toner cartridges,ELIAS MALL,"623 ELIAS ROAD, ELIAS MALL"
103.9362721,1.379306517,Bin collection; E-waste accepted: Ink and toner cartridges,PASIR RIS WEST PLAZA,"735 PASIR RIS STREET 72, PASIR RIS WEST PLAZA"
103.901558,1.38493202,Bin collection; E-waste accepted: Ink and toner cartridges,RIVERVALE PLAZA,"118 RIVERVALE DRIVE, RIVERVALE PLAZA"
103.7785605,1.338656769,Bin collection; E-waste accepted: Ink and toner cartridges,BUKIT TIMAH PLAZA,"1 JALAN ANAK BUKIT BUKIT TIMAH PLAZA, BUKIT TIMAH PLAZA"
103.720268,1.335042021,Bin collection; E-waste accepted: Ink and toner cartridges,TAMAN JURONG SHOPPING CENTRE,"399 YUNG SHENG ROAD, TAMAN JURONG SHOPPING CENTRE"
103.6970201,1.34159108,Bin collection; E-waste accepted: Ink and toner cartridges,PIONEER MALL,"638 JURONG WEST STREET 61, PIONEER MALL"
103.6977321,1.348743572,Bin collection; E-waste accepted: Ink and toner cartridges,GEK POH SHOPPING CENTRE,"762 JURONG WEST STREET 75, GEK POH SHOPPING CENTRE"
103.842561,1.29225958,"Bin collection; E-waste accepted: Batteries, Lamps",COLD STORAGE @ UE SQUARE,"81 CLEMENCEAU AVENUE, UE SQUARE, #02-15"
103.8436568,1.320211,"Bin collection; E-waste accepted: Batteries, Lamps",COLD STORAGE @ NOVENA SQUARE,"238 THOMSON ROAD, NOVENA SQUARE, #01-28"
103.7449504,1.385068357,"Bin collection; E-waste accepted: Batteries, Lamps",FAIRPRICE @ LOT 1 SHOPPERS' MALL,"21 CHOA CHU KANG AVE 4, LOT 1 SHOPPERS' MALL, #B1-03"
103.7465581,1.397301904,"Bin collection; E-waste accepted: Batteries, Lamps",FAIRPRICE @ YEW TEE POINT,"21 CHOA CHU KANG NORTH 6, YEW TEE POINT, #B1-01"
103.7393714,1.333753432,"Bin collection; E-waste accepted: Batteries, Lamps",FAIRPRICE @ BLK 135 JURONG GATEWAY RD,"BLK 135 JURONG GATEWAY RD, #01-337"
103.7468471,1.366506985,"Bin collection; E-waste accepted: Batteries, Lamps",FAIRPRICE @ HOMETEAM NS BUKIT BATOK CLUBHOUSE,"2 BUKIT BATOK WEST AVE 7, HOMETEAM NS BUKIT BATOK CLUBHOUSE, #01-10"
103.8078754,1.274862657,"Bin collection; E-waste accepted: ICT equipment, Batteries, Lamps",TELOK BLANGAH CC,"450 TELOK BLANGAH STREET 31, TELOK BLANGAH CC"
103.779774,1.295467181,"Bin collection; E-waste accepted: ICT equipment, Batteries, Lamps",KENT RIDGE CAMPUS,"27 SCIENCE DRIVE 1, KENT RIDGE CAMPUS, OUTSIDE LT27 & LT29 STUDENT SPACE, LEVEL 1"
103.7731518,1.296728863,"Bin collection; E-waste accepted: ICT equipment, Batteries, Lamps",KENT RIDGE CAMPUS,"12 KENT RIDGE CRES, KENT RIDGE CAMPUS,  CENTRAL LIBRARY FORUM SPACE, LEVEL 1"
103.7723962,1.304776877,"Bin collection; E-waste accepted: ICT equipment, Batteries, Lamps",UTOWN - STEPHEN RIADY CENTRE,"2 COLLEGE AVE WEST, UTOWN - STEPHEN RIADY CENTRE, LEVEL 1 IN FRONT OF WAACOW RESTAURANT"
103.8569792,1.324639594,"Bin collection; E-waste accepted: ICT equipment, Batteries, Lamps",WHAMPOA CC,300 WHAMPOA DRIVE
103.8670368,1.332535912,"Bin collection; E-waste accepted: ICT equipment, Batteries, Lamps",POTONG PASIR CC,6 POTONG PASIR AVENUE 2
103.9316206,1.326984988,"Bin collection; E-waste accepted: ICT equipment, Batteries, Lamps",HEARTBEAT @ BEDOK,11 BEDOK NORTH STREET 1
103.9396836,1.353496155,"Bin collection; E-waste accepted: ICT equipment, Batteries, Lamps",OUR TAMPINES HUB,1 TAMPINES WALK
103.7463772,1.325199507,"Bin collection; E-waste accepted: ICT equipment, Batteries, Lamps",GERMAN CENTRE,25 INTERNATIONAL BUSINESS PARK
103.8542974,1.279105668,"Bin collection; E-waste accepted: ICT equipment, Batteries, Lamps",MARINA BAY FINANCIAL CENTRE TOWER 3,12 MARINA BOULEVARD
103.7832287,1.44627225,"Bin collection; E-waste accepted: ICT equipment, Batteries, Lamps",REPUBLIC POLYTECHNIC,"9 WOODLANDS AVENUE 9, REPUBLIC POLYTECHNIC"
103.8470829,1.371409206,"Bin collection; E-waste accepted: Batteries, Lamps",FAIRPRICE @ BLK 712 ANG MO KIO,"BLK 712 ANG MO KIO AVE 6, BLK 712 ANG MO KIO, #01-4056"
103.849692,1.348888439,"Bin collection; E-waste accepted: Batteries, Lamps",FAIRPRICE @ BLK 510 ST13,"BLK 510 BISHAN ST 13, #01-520"
103.8570073,1.291455259,"Bin collection; E-waste accepted: ICT equipment, Batteries, Lamps",GAIN CITY @ MARINA SQUARE,"6 RAFFLES BOULEVARD, MARINA SQUARE, #03 - 223 / 232"
103.8498342,1.291146273,"Bin collection; E-waste accepted: ICT equipment, Batteries, Lamps",BEST DENKI @ FUNAN,"109 NORTH BRIDGE ROAD, FUNAN, #3-16"
103.8554112,1.299112871,"Bin collection; E-waste accepted: ICT equipment, Batteries, Lamps",CHALLENGER @ BUGIS JUNCTION,"200 VICTORIA STREET, BUGIS JUNCTION, #3-10E"
103.8317579,1.293802346,"Bin collection; E-waste accepted: ICT equipment, Batteries, Lamps",BEST DENKI @ GREAT WORLD CITY,"1 KIM SENG PROMENADE, GREAT WORLD CITY, #07-01"
103.8346761,1.302424166,"Bin collection; E-waste accepted: ICT equipment, Batteries, Lamps",BEST DENKI @ NGEE ANN CITY TOWER A,"391A ORCHARD ROAD, NGEE ANN CITY TOWER A"
103.801127,1.273676578,"Bin collection; E-waste accepted: Batteries, Lamps",FAIRPRICE @ 460 ALEXANDRA RD,"460 ALEXANDRA RD, 460 ALEXANDRA RD, #01-09 AND #01-16"
103.784084,1.292774313,"Bin collection; E-waste accepted: Batteries, Lamps",FAIRPRICE @ NUH MEDICAL CENTRE,"1 LOWER KENT RIDGE RD, NUH MEDICAL CENTRE, #02-16"
103.8100313,1.281122264,"Bin collection; E-waste accepted: Batteries, Lamps",FAIRPRICE @ DEPOT HEIGHTS SHOPPING CENTRE,"BLK 108 DEPOT RD, DEPOT HEIGHTS SHOPPING CENTRE, #01-01"
103.7926194,1.309258715,"Bin collection; E-waste accepted: Batteries, Lamps",FAIRPRICE @ BLK 36 HOLLAND DR,"BLK 36 HOLLAND DR, BLK 36 HOLLAND DR, #01-03/04/05"
103.7816972,1.304763563,"Bin collection; E-waste accepted: Batteries, Lamps",FAIRPRICE @ BLK 28 DOVER CRESCENT,"BLK 28 DOVER CRESCENT, BLK 28 DOVER CRESCENT, #01-83"
103.7654765,1.312481082,"Bin collection; E-waste accepted: Batteries, Lamps",FAIRPRICE @ BLK 451 AVE 3,"BLK 451 CLEMENTI AVE 3, BLK 451 AVE 3, #01-307"
103.720268,1.335042021,"Bin collection; E-waste accepted: Batteries, Lamps",FAIRPRICE @ TAMAN JURONG SHOPPING CENTRE,"BLK 399 YUNG SHENG RD, TAMAN JURONG SHOPPING CENTRE, #01-35"
103.7224529,1.332059384,"Bin collection; E-waste accepted: Batteries, Lamps",FAIRPRICE @ BLK 66 YUNG KANG RD,"BLK 63/66 YUNG KUANG RD, BLK 66 YUNG KANG RD, #01-119 AND #02-119"
103.7123877,1.346396041,"Bin collection; E-waste accepted: Batteries, Lamps",FAIRPRICE @ BOON LAY SHOPPING CENTRE,"BLK 221 BOON LAY PLACE, BOON LAY SHOPPING CENTRE, #02-200"
103.7064609,1.339830153,"Bin collection; E-waste accepted: Batteries, Lamps",FAIRPRICE @ JURONG POINT 1,"NO. 1 JURONG WEST CENTRAL 2, JURONG POINT 1, #B1-09"
103.7590809,1.311885956,"Bin collection; E-waste accepted: Batteries, Lamps",FAIRPRICE @ BLK 502 WEST COAST DR,"BLK 502 WEST COAST DR, BLK 502 WEST COAST DR, #01-41"
103.7627412,1.378349713,"Bin collection; E-waste accepted: Batteries, Lamps",FAIRPRICE @ HILLION MALL,"17 PETIR RD,HILLION MALL, #B2-67"
103.8533697,1.280238253,"Bin collection; E-waste accepted: ICT equipment, Batteries, Lamps",MARINA BAY LINK MALL,8A MARINA BOULEVARD
103.8468789,1.283515212,"Bin collection; E-waste accepted: ICT equipment, Batteries, Lamps",CROSS STREET EXCHANGE,18 CROSS STREET
103.8516771,1.280894771,"Bin collection; E-waste accepted: ICT equipment, Batteries, Lamps",ONE RAFFLES QUAY,1 RAFFLES QUAY
103.7431704,1.33320021,"Bin collection; E-waste accepted: ICT equipment, Batteries, Lamps",CHALLENGER @ JEM,"50 JURONG GATEWAY ROAD, JEM, #04-01"
103.7431704,1.33320021,"Bin collection; E-waste accepted: ICT equipment, Batteries, Lamps",COURTS @ JEM,"50 JURONG GATEWAY ROAD, JEM, #04-30"
103.944388,1.352672316,"Bin collection; E-waste accepted: ICT equipment, Batteries, Lamps",CAPITALAND TAMPINES MALL,4 TAMPINES CENTRAL 5
103.8384064,1.298975499,"Bin collection; E-waste accepted: ICT equipment, Batteries, Lamps",SINGTEL @ COMCENTRE,"31B EXETER ROAD, COMCENTRE"
103.8504872,1.33166814,"Bin collection; E-waste accepted: ICT equipment, Batteries, Lamps",CASH CONVERTERS @ 192 TOA PAYOH LORONG 4,192 TOA PAYOH LORONG 4
103.8479443,1.37060312,"Bin collection; E-waste accepted: ICT equipment, Batteries, Lamps",CASH CONVERTERS @ 710A ANG MO KIO AVE 8,710A ANG MO KIO AVE 8
103.7467345,1.334898437,"Bin collection; E-waste accepted: ICT equipment, Batteries, Lamps",CHALLENGER @ IMM,"2 JURONG EAST STREET 21, IMM, #2-23"
103.8215893,1.263895802,"Bin collection; E-waste accepted: ICT equipment, Batteries, Lamps",CHALLENGER @ VIVOCITY,"1 HARBOURFRONT WALK, VIVOCITY, #2-34"
103.9530245,1.342706186,"Bin collection; E-waste accepted: ICT equipment, Batteries, Lamps",COURTS @ EASTPOINT MALL,"3 SIMEI STREET 6, EASTPOINT MALL, #04-07"
103.9319999,1.372101696,"Bin collection; E-waste accepted: Batteries, Lamps",GIANT @ GIANT HYPERMART TAMPINES,"21 TAMPINES NORTH DRIVE 2, GIANT HYPERMART TAMPINES, #03-01"
103.9323601,1.324961423,"Bin collection; E-waste accepted: ICT equipment, Batteries, Lamps",HARVEY NORMAN @ BEDOK POINT,"799 NEW UPPER CHANGI ROAD, BEDOK POINT, #B1-01/02, #B-16/2 AND #B1-K1/K14"
103.7639619,1.380517328,"Bin collection; E-waste accepted: ICT equipment, Batteries, Lamps",HARVEY NORMAN @ BUKIT PANJANG PLAZA,"1 JELEBU ROAD, BUKIT PANJANG PLAZA, #03-06"
103.8476079,1.372854254,"Bin collection; E-waste accepted: ICT equipment, Batteries, Lamps",HARVEY NORMAN @ DJITSUN MALL,"5 ANG MO KIO CENTRAL 3, DJITSUN MALL, #2-1"
103.859344,1.29296504,"Bin collection; E-waste accepted: ICT equipment, Batteries, Lamps",HARVEY NORMAN @ MILLENIA WALK,"9 RAFFLES BOULEVARD, MILLENIA WALK, #02-27"
103.9051136,1.301191307,"Bin collection; E-waste accepted: ICT equipment, Batteries, Lamps",HARVEY NORMAN @ PARKWAY PARADE,"80 MARINE PARADE ROAD, PARKWAY PARADE, #02-34"
103.8100313,1.281122264,Bin collection; E-waste accepted: Ink and toner cartridges,DEPOT HEIGHTS SHOPPING CENTRE,"108 DEPOT ROAD, DEPOT HEIGHTS SHOPPING CENTRE"
103.810959,1.292703393,Bin collection; E-waste accepted: Ink and toner cartridges,DAWSON PLACE,"57 DAWSON RD, DAWSON PLACE"
103.8411521,1.287388558,Bin collection; E-waste accepted: Ink and toner cartridges,54 CHIN SWEE RD,"54 CHIN SWEE ROAD HDB-CENTRAL AREA, 54 CHIN SWEE RD"
103.861312,1.308806093,Bin collection; E-waste accepted: Ink and toner cartridges,KITCHENER COMPLEX,"809 FRENCH ROAD, KITCHENER COMPLEX"
103.8436568,1.320211,Bin collection; E-waste accepted: Ink and toner cartridges,NOVENA SQUARE,"238 THOMSON ROAD, NOVENA SQUARE"
103.8483261,1.332141119,Bin collection; E-waste accepted: Ink and toner cartridges,HDB HUB,"6 LORONG TOA PAYOH, HDB HUB"
103.7602184,1.385096023,"Bin collection; E-waste accepted: Batteries, Lamps",FAIRPRICE @ SENJA GRAND,"BLK 628 SENJA RD, SENJA GRAND, #01-01"
103.7531184,1.380030579,"Bin collection; E-waste accepted: Batteries, Lamps",FAIRPRICE @ BLK 140 TECK WHYE LANE,"BLK 140 TECK WHYE LANE, #01-351"
103.9444581,1.354801078,"Bin collection; E-waste accepted: ICT equipment, Batteries, Lamps",CASH CONVERTERS @ 510 TAMPINES CENTRAL 1,510 TAMPINES CENTRAL 1
103.944388,1.352672316,"Bin collection; E-waste accepted: ICT equipment, Batteries, Lamps",STARHUB @ TAMPINES CENTRAL,"4 TAMPINES CENTRAL 5, TAMPINES CENTRAL, #2-27"
103.9450195,1.35431556,"Bin collection; E-waste accepted: ICT equipment, Batteries, Lamps",CHALLENGER @ TAMPINES 1,"10 TAMPINES CENTRAL 1, TAMPINES 1, #4-25"
103.9450195,1.35431556,"Bin collection; E-waste accepted: ICT equipment, Batteries, Lamps",GAIN CITY @ TAMPINES 1,"10 TAMPINES CENTRAL 1, TAMPINES 1, #B1-09"
103.7389318,1.378056142,"Bin collection; E-waste accepted: ICT equipment, Batteries, Lamps",SUNSHINE PLACE @ 475 CHOA CHU KANG AVENUE 3,475 CHOA CHU KANG AVENUE 3
103.7449238,1.384065159,"Bin collection; E-waste accepted: ICT equipment, Batteries, Lamps",PEOPLE'S ASSOCIATION @ KEAT HONG CC,"2 CHOA CHU KANG LOOP, KEAT HONG CC"
103.8564218,1.311305165,"Bin collection; E-waste accepted: ICT equipment, Batteries, Lamps",CITY SQUARE MALL @ 180 KITCHENER ROAD,180 KITCHENER ROAD
103.89498,1.39209415,"Bin collection; E-waste accepted: ICT equipment, Batteries, Lamps",COMPASS ONE #B1-52/53 @ 1 SENGKANG SQUARE,1 SENGKANG SQUARE
103.7866196,1.435077886,"Bin collection; E-waste accepted: Batteries, Lamps",FAIRPRICE @ WOODLANDS CIVIC CENTRE,"900 SOUTH WOODLANDS DRIVE, WOODLANDS CIVIC CENTRE, #B1-01"
103.7951367,1.437679197,"Bin collection; E-waste accepted: Batteries, Lamps",FAIRPRICE @ BLK 888 WOODLANDS DR 50,"BLK 888 WOODLANDS DR 50, #01-757"
103.8828942,1.375148978,"Bin collection; E-waste accepted: ICT equipment, Batteries, Lamps",CI YUAN CC,51 HOUGANG AVENUE 9
103.8926222,1.364757432,"Bin collection; E-waste accepted: ICT equipment, Batteries, Lamps",HOUGANG CC,35 HOUGANG AVENUE 3
103.8483992,1.369248913,"Bin collection; E-waste accepted: ICT equipment, Batteries, Lamps",CHALLENGER @ ANG MO KIO HUB,"ANG MO KIO AVENUE 3, ANG MOH KIO HUB, #B1-58"
103.8412862,1.362137568,"Bin collection; E-waste accepted: ICT equipment, Batteries, Lamps",MARYMOUNT CC,SIN MING AVE
103.7856887,1.436007845,"Bin collection; E-waste accepted: ICT equipment, Batteries, Lamps",CAUSEWAY POINT,1 WOODLANDS SQUARE
103.9051136,1.301191307,"Bin collection; E-waste accepted: ICT equipment, Batteries, Lamps",BEST DENKI @ PARKWAY PARADE,"80 MARINE PARADE ROAD, PARKWAY PARADE, #3-29"
103.8357765,1.42969848,"Bin collection; E-waste accepted: ICT equipment, Batteries, Lamps",HARVEY NORMAN @ NORTHPOINT CITY,"930 YISHUN AVENUE 2, NORTHPOINT CITY"
103.8215893,1.263895802,"Bin collection; E-waste accepted: ICT equipment, Batteries, Lamps",BEST DENKI @ VIVOCITY,"1 HARBOURFRONT WALK, VIVOCITY, #2-07"
103.8215893,1.263895802,"Bin collection; E-waste accepted: ICT equipment, Batteries, Lamps",FAIRPRICE @ VIVOCITY,"1 HARBOURFRONT WALK, VIVOCITY, #B2-23"
103.7642482,1.314853218,"Bin collection; E-waste accepted: ICT equipment, Batteries, Lamps",BEST DENKI @ THE CLEMENTI MALL,"3155 COMMONWEALTH AVENUE WEST, THE CLEMENTI MALL, #04-46/47/48/49"
103.8269351,1.286463453,"Bin collection; E-waste accepted: ICT equipment, Batteries, Lamps",CHALLENGER @ TIONG BAHRU PLAZA,"302 TIONG BAHRU ROAD, TIONG BAHRU PLAZA, #3-19"
103.8450476,1.300747708,"Bin collection; E-waste accepted: ICT equipment, Batteries, Lamps",BEST DENKI @ PLAZA SINGAPURA,"68 ORCHARD ROAD, PLAZA SINGAPURA, #3-39"
103.8450476,1.300747708,"Bin collection; E-waste accepted: ICT equipment, Batteries, Lamps",STARHUB @ PLAZA SINGAPURA,"68 ORCHARD ROAD, PLAZA SINGAPURA, #1-36"
103.7393714,1.333753432,"Bin collection; E-waste accepted: ICT equipment, Batteries, Lamps",CASH CONVERTERS @ 135 JURONG GATEWAY ROAD,135 JURONG GATEWAY ROAD
103.7467345,1.334898437,"Bin collection; E-waste accepted: ICT equipment, Batteries, Lamps",BEST DENKI @ IMM,"2 JURONG EAST STREET 21, IMM, #3-33"
103.705351,1.339315034,"Bin collection; E-waste accepted: ICT equipment, Batteries, Lamps",BEST DENKI @ JURONG POINT,"63 JURONG WEST CENTRAL 3, JURONG POINT, #B1-92"
103.705351,1.339315034,"Bin collection; E-waste accepted: ICT equipment, Batteries, Lamps",FAIRPRICE @ JURONG POINT,"63 JURONG WEST CENTRAL 3, JURONG POINT, #03-01"
103.7064609,1.339830153,"Bin collection; E-waste accepted: ICT equipment, Batteries, Lamps",CHALLENGER @ JURONG POINT,"1 JURONG WEST CENTRAL 2, JURONG POINT, #B1-94"
103.8450476,1.300747708,"Bin collection; E-waste accepted: ICT equipment, Batteries, Lamps",CHALLENGER @ PLAZA SINGAPURA,"68 ORCHARD ROAD, PLAZA SINGAPURA, #4-12"
103.8194621,1.448226532,"Bin collection; E-waste accepted: ICT equipment, Batteries, Lamps",CHALLENGER @ SUN PLAZA,"30 SEMBAWANG DRIVE, SUN PLAZA, #2-06"
103.7856887,1.436007845,"Bin collection; E-waste accepted: ICT equipment, Batteries, Lamps",COURTS @ CAUSEWAY POINT,"1 WOODLANDS SQUARE, CAUSEWAY POINT, #04-19/20"
103.8412365,1.417999256,"Bin collection; E-waste accepted: ICT equipment, Batteries, Lamps",WISTERIA MALL,"598 YISHUN RING RD, WISTERIA MALL"
103.7686373,1.309733306,"Bin collection; E-waste accepted: Batteries, Lamps",SHENG SIONG @  420A CLEMENTI,"BLK 420A CLEMENTI AVE 1, #01-01"
103.7034157,1.348784892,"Bin collection; E-waste accepted: Batteries, Lamps",SHENG SIONG @  7 JURONG WEST,"7 JURONG WEST AVE 5, #01-01"
103.9528161,1.350010739,"Bin collection; E-waste accepted: ICT equipment, Batteries, Lamps",TAMPINES CHANGKAT ZONE 4 RC,"285 TAMPINES STREET 22, TAMPINES CHANGKAT ZONE 4 RC"
103.9598735,1.356938006,"Bin collection; E-waste accepted: ICT equipment, Batteries, Lamps",TAMPINES CHANGKAT ZONE 8 RC,"364 TAMPINES STREET 34, TAMPINES CHANGKAT ZONE 8 RC"
103.9501482,1.35955258,"Bin collection; E-waste accepted: ICT equipment, Batteries, Lamps",TAMPINES NORTH ZONE 3 RC,"430 TAMPINES STREET 41, TAMPINES NORTH ZONE 3 RC"
103.9334992,1.356706058,"Bin collection; E-waste accepted: ICT equipment, Batteries, Lamps",TAMPINES COURTVIEW RC,"730 TAMPINES STREET 71, TAMPINES COURTVIEW RC"
103.9343834,1.359041594,"Bin collection; E-waste accepted: ICT equipment, Batteries, Lamps",TAMPINES GREENVALE RC,"736 TAMPINES STREET 72, TAMPINES GREENVALE RC"
103.9359524,1.351738504,"Bin collection; E-waste accepted: ICT equipment, Batteries, Lamps",TAMPINES VILLE RN,"842 TAMPINES STREET 82, TAMPINES VILLE RN"
103.9314788,1.351326074,"Bin collection; E-waste accepted: ICT equipment, Batteries, Lamps",TAMPINES SPRING RN,"880 TAMPINES AVENUE 8, TAMPINES SPRING RN"
103.9497933,1.345184279,"Bin collection; E-waste accepted: ICT equipment, Batteries, Lamps",TAMPINES CHANGKAT ZONE 5 RC,"124 TAMPINES STREET 11, TAMPINES CHANGKAT ZONE 5 RC"
103.8480833,1.380340907,"Bin collection; E-waste accepted: ICT equipment, Batteries, Lamps","NANYANG POLYTECHNIC, BLOCK E (NORTH CANTEEN)","ANG MO KIO AVENUE 8, NANYANG POLYTECHNIC, BLOCK E (NORTH CANTEEN)"
103.8309198,1.354669019,"Bin collection; E-waste accepted: ICT equipment, Batteries, Lamps",THOMSON PLAZA,"301 UPPER THOMSON ROAD, THOMSON PLAZA"
103.7715625,1.332762597,"Bin collection; E-waste accepted: ICT equipment, Batteries, Lamps","NGEE ANN POLYTECHNIC, BLK 22","535 CLEMENTI ROAD, NGEE ANN POLYCLINIC, BLK 22"
103.7521127,1.375024934,"Bin collection; E-waste accepted: ICT equipment, Batteries, Lamps",ITE COLLEGE WEST,"1 CHOA CHU KANG GROVE, ITE COLLEGE WEST"
103.8423932,1.27559619,"Bin collection; E-waste accepted: Batteries, Lamps",FAIRPRICE @ TANJONG PAGAR PLAZA,"TANJONG PAGAR PLAZA, #01-01"
103.8176429,1.283119496,"Bin collection; E-waste accepted: Batteries, Lamps",FAIRPRICE @ 166 BUKIT MERAH CENTRAL,"166 BUKIT MERAH CENTRAL, #01-3531 & 02-3531"
103.810959,1.292703393,"Bin collection; E-waste accepted: Batteries, Lamps",FAIRPRICE @ DAWSON PLACE,"BLK 57 DAWSON RD, DAWSON PLACE, #01-07"
103.8267938,1.289778133,"Bin collection; E-waste accepted: Batteries, Lamps",FAIRPRICE @ BLK 50 HAVELOCK RD,"BLK 50 HAVELOCK RD, BLK 50 HAVELOCK RD, #01-755"
103.7493345,1.348710802,"Bin collection; E-waste accepted: Batteries, Lamps",FAIRPRICE @ 10 BUKIT BATOK CENTRAL,"10 BUKIT BATOK CENTRAL, #01-08"
103.7312191,1.345512094,"Bin collection; E-waste accepted: Batteries, Lamps",FAIRPRICE @ BLK 345 JURONG EAST ST 31,"BLK 345 JURONG EAST ST 31, #01-29"
103.9291821,1.324793607,"Bin collection; E-waste accepted: ICT equipment, Batteries, Lamps",BEST DENKI @ BEDOK MALL,"311 NEW UPPER CHANGI ROAD, BEDOK MALL, #B1-01/43/44"
103.9530245,1.342706186,"Bin collection; E-waste accepted: ICT equipment, Batteries, Lamps",CHALLENGER @ EASTPOINT MALL,"3 SIMEI STREET 6, EASTPOINT MALL, #B1-08"
103.8793,1.375849973,"Bin collection; E-waste accepted: ICT equipment, Batteries, Lamps",FAIRPRICE @ HOUGANG 1,"1 HOUGANG ST 91, HOUGANG 1, #2-01"
103.8936616,1.372311856,"Bin collection; E-waste accepted: ICT equipment, Batteries, Lamps",CHALLENGER @ HOUGANG MALL,"90 HOUGANG AVENUE 10, HOUGANG MALL, #02-13"
103.8717045,1.350438172,"Bin collection; E-waste accepted: ICT equipment, Batteries, Lamps",FAIRPRICE @ NEX MALL,"23 SERANGOON CENTRAL, NEX MALL, #03-42"
103.7642664,1.361967244,"Bin collection; E-waste accepted: ICT equipment, Batteries, Lamps",PEOPLE'S ASSOCIATION @ HILLVIEW CC,"1 HILLVIEW RISE, HILLVIEW CC"
103.8727507,1.303843268,"Bin collection; E-waste accepted: ICT equipment, Batteries, Lamps",FAIRPRICE @ WAVE MALL,"1 STADIUM PLACE LEVEL 1, WAVE MALL, #01-29"
103.8927244,1.317523841,"Bin collection; E-waste accepted: ICT equipment, Batteries, Lamps",CHALLENGER @ PAYA LEBAR QUARTER(PLQ),"10 PAYA LEBAR ROAD, PAYA LEBAR QUARTER(PLQ), #4-01"
103.9051136,1.301191307,"Bin collection; E-waste accepted: ICT equipment, Batteries, Lamps",FAIRPRICE @ PARKWAY PARADE,"80 MARINE PARADE RD, PARKWAY PARADE, #3-28"
103.8484301,1.350172427,"Bin collection; E-waste accepted: ICT equipment, Batteries, Lamps",BEST DENKI @ JUNCTION 8 SHOPPING CENTRE,"9 BISHAN PLACE, JUNCTION 8 SHOPPING CENTRE, #3-2"
103.8484301,1.350172427,"Bin collection; E-waste accepted: Batteries, Lamps",FAIRPRICE @ JUNCTION 8 SHOPPING CENTRE,"9 BISHAN PLACE, JUNCTION 8 SHOPPING CENTRE, #B1-01"
103.7639619,1.380517328,"Bin collection; E-waste accepted: Batteries, Lamps",FAIRPRICE @ BUKIT PANJANG PLAZA,"NO. 1 JELEBU RD, BUKIT PANJANG PLAZA, #01-15 & #02-20"
103.7473297,1.39712886,"Bin collection; E-waste accepted: Batteries, Lamps",FAIRPRICE @ YEW TEE MRT STATION,"61 CHOA CHU KANG DR, YEW TEE MRT STATION, #01-01"
103.7642482,1.314853218,"Bin collection; E-waste accepted: Batteries, Lamps",FAIRPRICE @ THE CLEMENTI MALL,"3155 COMMONWEALTH AVENUE WEST, THE CLEMENTI MALL, #B1-12"
103.8650419,1.365160708,"Bin collection; E-waste accepted: Batteries, Lamps",FAIRPRICE @ SERANGOON GARDEN VILLAGE,"1 MAJU AVE, SERANGOON GARDEN VILLAGE, #B1-11"
103.7785605,1.338656769,"Bin collection; E-waste accepted: Batteries, Lamps",FAIRPRICE @ BUKIT TIMAH PLAZA,"NO. 1 JLN ANAK BUKIT, BUKIT TIMAH PLAZA, #B1-01 & #B2-01"
103.8309198,1.354669019,"Bin collection; E-waste accepted: Batteries, Lamps",FAIRPRICE @ THOMSON PLAZA,"301 UPPER THOMSON RD, THOMSON PLAZA, #03-37/38"
103.8761527,1.302221771,"Bin collection; E-waste accepted: Batteries, Lamps",COLD STORAGE @ LEISURE PARK,"5 STADIUM WALK, KALLANG LIESURE PARK, #B1-01"
103.763751,1.302464084,"Bin collection; E-waste accepted: ICT equipment, Batteries, Lamps",SHENG SIONG @  720 CLEMENTI WEST,"720  CLEMENTI WEST ST 2, #01-144"
103.7439485,1.353038244,"Bin collection; E-waste accepted: ICT equipment, Batteries, Lamps",SHENG SIONG @  451 BUKIT BATOK,"451 BUKIT BATOK WEST AVENUE 6, #01-10"
103.8873631,1.320000402,"Bin collection; E-waste accepted: ICT equipment, Batteries, Lamps",SHENG SIONG @ 118  ALJUNIED,"118 ALJUNIED AVE 2, #01-100"
103.9310688,1.324635726,"Bin collection; E-waste accepted: ICT equipment, Batteries, Lamps",SHENG SIONG @  209 NEW UPPER CHANGI RD,"209 NEW UPPER CHANGI RD, #01-631"
103.856412,1.377892032,"Bin collection; E-waste accepted: ICT equipment, Batteries, Lamps",SHENG SIONG @  ITE COLLEGE CENTRAL,"ANG MO KIO DRIVE, #A1-12"
103.9374256,1.361136455,"Bin collection; E-waste accepted: ICT equipment, Batteries, Lamps",SHENG SIONG @  602A TAMPINES,"602A TAMPINES AVENUE 9, #01-01"
103.7797469,1.433512529,"Bin collection; E-waste accepted: Batteries, Lamps",SHENG SIONG @  4 WOODLANDS,"BLK 4 WOODLANDS STREET 12, #02-61"
103.8054898,1.446798878,"Bin collection; E-waste accepted: Batteries, Lamps",SHENG SIONG @  785E WOODLANDS,"BLK 785E WOODLANDS RISE, #01-01"
103.7901914,1.274599981,"Bin collection; E-waste accepted: ICT equipment, Batteries, Lamps",ICA @ PASIR PANJANG TERMINAL BUILDING 3,"3 HARBOUR DRIVE, PASIR PANJANG TERMINAL BUILDING 3"
103.9131957,1.402878453,"Bin collection; E-waste accepted: ICT equipment, Batteries, Lamps",OASIS TERRACES,"681 PUNGGOL DRIVE, OASIS TERRACES"
103.944388,1.352672316,"Manned collection; E-waste accepted: ICT equipment, Batteries, Lamps",COURTS @ TAMPINES MALL,"4 TAMPINES CENTRAL 5, TAMPINES MALL, #03-16/16A"
103.8499848,1.291244,"Manned collection; E-waste accepted: ICT equipment, Batteries, Lamps",COURTS @ FUNAN,"107 NORTH BRIDGE ROAD, FUNAN, #03-01"
103.8384866,1.301854877,"Manned collection; E-waste accepted: ICT equipment, Batteries, Lamps",COURTS @ COURTS ORCHARD,"228 ORCHARD ROAD, COURTS ORCHARD"
103.7743211,1.34449155,"Manned collection; E-waste accepted: ICT equipment, Batteries, Lamps",COURTS @ SIM LIAN BUILDING,"205 UPPER BUKIT TIMAH ROAD, SIM LIAN BUILDING"
103.7654765,1.312481082,"Manned collection; E-waste accepted: ICT equipment, Batteries, Lamps",COURTS @ CLEMENTI,"451 CLEMENTI AVE 3, COURTS CLEMENTI, #01-309"
103.7449504,1.385068357,"Manned collection; E-waste accepted: ICT equipment, Batteries, Lamps",COURTS @ LOT ONE,"21 CHOA CHU KANG AVE 4, LOT ONE, #03-01"
103.8576291,1.283322493,"Manned collection; E-waste accepted: ICT equipment, Batteries",APPLE @ MBS,"2 BAYFRONT AVENUE, MBS, B2-06"
103.836202,1.303105251,"Manned collection; E-waste accepted: ICT equipment, Batteries",APPLE @ ORCHARD,"270 ORCHARD ROAD, APPLE ORCHARD"
103.9890776,1.360340997,"Manned collection; E-waste accepted: ICT equipment, Batteries",APPLE @ JEWEL,"78 AIRPORT BOULEVARD, JEWEL, #02-234"
103.749022,1.35018916,Bin collection; E-waste accepted: Ink and toner cartridges,BUKIT BATOK PUBLIC LIBRARY,"1 BUKIT BATOK CENTRAL LINK, #3-01"
103.7639619,1.380517328,Bin collection; E-waste accepted: Ink and toner cartridges,BUKIT PANJANG PUBLIC LIBRARY,"1 JELEBU ROAD, #4-04 & 16/17"
103.9636539,1.334919773,"Bin collection; E-waste accepted: ICT equipment, Batteries, Lamps",FAIRPRICE @ 8 CHANGI BUSINESS PARK AVE 1,"8 CHANGI BUSINESS PARK AVE 1, #01-51 &, #02-51"
103.9623893,1.334325156,"Bin collection; E-waste accepted: ICT equipment, Batteries, Lamps",CHALLENGER @ CHANGI CITY POINT,"5 CHANGI BUSINESS PARK CENTRAL 1, CHANGI CITY POINT, #01-56"
103.8645742,1.371893934,"Bin collection; E-waste accepted: ICT equipment, Batteries, Lamps",GAIN CITY @ ANG MO KIO INDUSTIRAL PARK 2,8 ANG MO KIO INDUSTRIAL PARK 2
103.7494568,1.359058888,"Bin collection; E-waste accepted: ICT equipment, Batteries, Lamps",PEOPLE'S ASSOCIATION @ HONG KAH NORTH CC,"30 BUKIT BATOK STREET 31, HONG KAH NORTH CC"
103.7627412,1.378349713,"Bin collection; E-waste accepted: ICT equipment, Batteries, Lamps",BEST DENKI @ HILLION MALL,"17 PETIR ROAD, HILLION MALL, #B1-65"
103.7460157,1.412863857,"Bin collection; E-waste accepted: ICT equipment, Batteries, Lamps",GAIN CITY @ GAIN CITY MEGASTORE @  SUNGEI KADUT,"71 SUNGEI KADUT DRIVE, GAIN CITY MEGASTORE @  SUNGEI KADUT"
103.9019882,1.406536107,"Bin collection; E-waste accepted: ICT equipment, Batteries, Lamps",BEST DENKI @ WATERWAY POINT,"83 PUNGGOL CENTRAL, WATERWAY POINT"
103.8434632,1.31733463,"Bin collection; E-waste accepted: Batteries, Lamps",COLD STORAGE @ UNITED SQUARE,"101 THOMSON ROAD, UNITED SQUARE, #B1-29"
103.8554112,1.299112871,"Bin collection; E-waste accepted: Batteries, Lamps",COLD STORAGE @ BUGIS JUNCTION,"230 VICTORIA STREET, BUGIS JUNCTION, #B1-17"
103.7956924,1.330817401,"Bin collection; E-waste accepted: Batteries, Lamps",COLD STORAGE @ GUTHRIE HOUSE,"1 FIFTH AVENUE, GUTHRIE HOUSE, #01-05"
103.8527683,1.293760279,"Bin collection; E-waste accepted: Batteries, Lamps",COLD STORAGE @ RAFFLES CITY SHOPPING CENTRE,"1 STAMFORD ROAD, RAFFLES CITY SHOPPING CENTRE, #B1-01"
103.8142456,1.32257317,"Bin collection; E-waste accepted: Batteries, Lamps",COLD STORAGE @ CLUNY COURT,"501 BUKIT TIMAH ROAD, CLUNY COURT, #01-02"
103.7652845,1.303582681,"Bin collection; E-waste accepted: Batteries, Lamps",COLD STORAGE @ WEST COAST PLAZA,"154 WEST COAST ROAD, WEST COAST PLAZA, #B1-19"
103.8317579,1.293802346,"Bin collection; E-waste accepted: Batteries, Lamps",COLD STORAGE @ GREAT WORLD CITY,"1 KIM SENG PROMENADE, GREAT WORLD CITY, #B1-18"
103.7882145,1.306848818,"Bin collection; E-waste accepted: Batteries, Lamps",COLD STORAGE @ THE STAR VISTA,"1 VISTA EXCHANGE GREEN, THE STAR VISTA, #B1-02"
103.7641729,1.362674506,"Bin collection; E-waste accepted: Batteries, Lamps",COLD STORAGE @ HILLVIEW MARKET PLACE,"4 HILLVIEW RISE, HILLVIEW MARKET PLACE, #02-07"
103.8641016,1.309742413,"Bin collection; E-waste accepted: Batteries, Lamps",COLD STORAGE @ APERIA,"12  KALLANG AVE, APERIA, #01-47"
103.89498,1.39209415,"Bin collection; E-waste accepted: Batteries, Lamps",COLD STORAGE @ COMPASS ONE,"1 SENGKANG SQUARE, COMPASS ONE, #B1-25"
103.7874041,1.299294056,"Bin collection; E-waste accepted: Batteries, Lamps",COLD STORAGE @ ONE NORTH,"1 FUSIONOPOLIS WAY, ONE NORTH, #B2-03"
103.8455807,1.374790095,Bin collection; E-waste accepted: Ink and toner cartridges,ANG MO KIO PUBLIC LIBRARY,4300 ANG MO KIO AVENUE 6
103.9316206,1.326984988,Bin collection; E-waste accepted: Ink and toner cartridges,BEDOK PUBLIC LIBRARY,"11 BEDOK NORTH STREET 1, #2-03 & #3-04"
103.848843,1.349853049,Bin collection; E-waste accepted: Ink and toner cartridges,BISHAN PUBLIC LIBRARY,"5 BISHAN PLACE, #1-01"
103.8936616,1.372311856,Bin collection; E-waste accepted: Ink and toner cartridges,CHENG SAN PUBLIC LIBRARY,"90 HOUGANG AVENUE, #3-11"
103.7449504,1.385068357,Bin collection; E-waste accepted: Ink and toner cartridges,CHOA CHU KANG PUBLIC LIBRARY,"21 CHOA CHU KANG AVE 4, #4-01/02"
103.7642482,1.314853218,Bin collection; E-waste accepted: Ink and toner cartridges,CLEMENTI PUBLIC LIBRARY,"3155 COMMONWEALTH AVENUE WEST, #5-13/14/15"
103.8858373,1.317442984,Bin collection; E-waste accepted: Ink and toner cartridges,GEYLANG EAST PUBLIC LIBRARY,50 GEYLANG EAST AVE 1
103.7394902,1.332884842,Bin collection; E-waste accepted: Ink and toner cartridges,JURONG REGIONAL LIBRARY,21 JURONG EAST CENTRAL 1
103.7044527,1.340469564,Bin collection; E-waste accepted: Ink and toner cartridges,JURONG WEST PUBLIC LIBRARY,"60 JURONG WEST CENTRAL 3, #1-03"
103.9095453,1.304828598,Bin collection; E-waste accepted: Ink and toner cartridges,MARINE PARADE PUBLIC LIBRARY,"278 MARINE PARADE ROAD, #1-02"
103.8539423,1.297489753,Bin collection; E-waste accepted: Ink and toner cartridges,NATIONAL LIBRARY BUILDING,100 VICTORIA STREET
103.9396836,1.353496155,Bin collection; E-waste accepted: Ink and toner cartridges,TAMPINES REGIONAL LIBRARY,"1 TAMPINES WALK, #2-01"
103.8504918,1.333520762,Bin collection; E-waste accepted: Ink and toner cartridges,TOA PAYOH PUBLIC LIBRARY,6 TOA PAYOH CENTRAL
103.8054308,1.298640211,Bin collection; E-waste accepted: Ink and toner cartridges,QUEENSTOWN PUBLIC LIBRARY,53 MARGARET DRIVE
103.7866196,1.435077886,Bin collection; E-waste accepted: Ink and toner cartridges,WOODLANDS REGIONAL LIBRARY,"900 SOUTH WOODLANDS DRIVE, #1-03"
103.8357765,1.42969848,Bin collection; E-waste accepted: Ink and toner cartridges,YISHUN PUBLIC LIBRARY,"930 YISHUN AVE 2, #4-01"
103.89498,1.39209415,Bin collection; E-waste accepted: Ink and toner cartridges,SENGKANG PUBLIC LIBRARY,"1 SENGKANG SQUARE & COMPASS ONE, #3-28 / #4-19"
103.8717045,1.350438172,Bin collection; E-waste accepted: Ink and toner cartridges,SERANGOON PUBLIC LIBRARY,"23 SERANGOON CENTRAL, #4-82/83"
103.8194621,1.448226532,Bin collection; E-waste accepted: Ink and toner cartridges,SEMBAWANG PUBLIC LIBRARY,"30 SEMBAWANG DRIVE, #5-01"
103.8556658,1.289509553,Bin collection; E-waste accepted: Ink and toner cartridges,LIBRARY@ESPLANADE,"8 RAFFLES AVENUE, #3-01"
103.856412,1.377892032,"Bin collection; E-waste accepted: ICT equipment, Batteries, Lamps",ITE COLLEGE CENTRAL,2 ANG MO KIO DRIVE
103.7858406,1.317561967,"Bin collection; E-waste accepted: Batteries, Lamps",COLD STORAGE @ JELITA SHOPPING CENTRE,"293 HOLLAND ROAD, JELITA SHOPPING CENTRE, #01-01"
103.7882354,1.439730339,"Bin collection; E-waste accepted: ICT equipment, Batteries, Lamps",WOODLANDS CC,"1 WOODLANDS STREET 81, WOODLANDS CC"
103.7748119,1.429529819,"Bin collection; E-waste accepted: ICT equipment, Batteries, Lamps",FUCHUN CC,"1 WOODLANDS STREET 31, FUCHUN CC"
103.802611,1.439041607,"Bin collection; E-waste accepted: ICT equipment, Batteries, Lamps",WOODLANDS GALAXY CC,"31 WOODLANDS AVENUE 6, WOODLANDS GALAXY CC"
103.7922408,1.427492776,"Bin collection; E-waste accepted: ICT equipment, Batteries, Lamps",ACE THE PLACE CC,"120 WOODLANDS AVENUE 1, ACE THE PLACE CC"
103.8360921,1.428035845,"Bin collection; E-waste accepted: ICT equipment, Batteries, Lamps",NEE SOON CENTRAL CC,"1 NORTHPOINT DRIVE NEE SOON CENTRAL COMMUNITY CLUB, NEE SOON CENTRAL CC"
103.8346931,1.415174966,"Bin collection; E-waste accepted: ICT equipment, Batteries, Lamps",NEE SOON SOUTH CC,"30 YISHUN STREET 81, NEE SOON SOUTH CC"
103.8384881,1.431020872,"Bin collection; E-waste accepted: ICT equipment, Batteries, Lamps",NEE SOON EAST CC,"1 YISHUN AVENUE 9, NEE SOON EAST CC"
103.9095453,1.304828598,"Bin collection; E-waste accepted: ICT equipment, Batteries, Lamps",MARINE PARADE CC,"278 MARINE PARADE ROAD, MARINE PARADE CC"
103.954985,1.334554043,"Bin collection; E-waste accepted: ICT equipment, Batteries, Lamps",ITE COLLEGE EAST,"10 SIMEI AVE, ITE COLLEGE EAST, #B1-14"
103.92884,1.347939478,"Bin collection; E-waste accepted: ICT equipment, Batteries, Lamps",TEMASEK POLYTECHHIC,"21 TAMPINES AVENUE 1, TEMASEK POLYTECHHIC"
103.8521282,1.283856981,"Bin collection; E-waste accepted: ICT equipment, Batteries, Lamps",CLIFFORD CENTRE,"24 RAFFLES PLACE, CLIFFORD CENTRE"
103.8451554,1.276724923,"Bin collection; E-waste accepted: ICT equipment, Batteries, Lamps",GUOCO TOWER,"7 WALLICH STREET, GUOCO TOWER"
103.8457032,1.275735681,"Bin collection; E-waste accepted: ICT equipment, Batteries, Lamps",INTERNATIONAL PLAZA,"10 ANSON ROAD, INTERNATIONAL PLAZA, #36-05"
103.7801253,1.301008728,"Bin collection; E-waste accepted: ICT equipment, Batteries, Lamps",SIT @ DOVER,"10 DOVER DRIVE, SIT@DOVER"
103.8528756,1.303022983,"Bin collection; E-waste accepted: ICT equipment, Batteries, Lamps",SIM LIM SQUARE,"1 ROCHOR CANAL RD, SIM LIM SQUARE"
103.8477898,1.29918373,"Bin collection; E-waste accepted: ICT equipment, Batteries, Lamps",THE CATHAY,"2 HANDY RD, THE CATHAY"
103.8005735,1.439777011,"Bin collection; E-waste accepted: Batteries, Lamps",FAIRPRICE @ KAMPUND ADMIRALTY,"BLK 676 WOODLANDS DR 71, KAMPUND ADMIRALTY, #B1-02"
103.7740512,1.43262603,"Bin collection; E-waste accepted: Batteries, Lamps",FAIRPRICE @ MARSLING MRT,"71 WOODLANDS AVE 3, MARSLING MRT, #01-01"
103.81318,1.313479416,"Bin collection; E-waste accepted: ICT equipment, Batteries, Lamps",NATIONAL PARKS BOARD HQ,"1 CLUNY ROAD, NATIONAL PARKS BOARD HQ, SINGAPORE BOTANIC GARDENS"
103.7931338,1.338994627,"Bin collection; E-waste accepted: ICT equipment, Batteries, Lamps",THE GRANDSTAND (TURF CITY),"200 TURF CLUB ROAD DBS THE GRANDSTAND, THE GRANDSTAND( TURF CITY)"
103.8464909,1.327029906,"Bin collection; E-waste accepted: ICT equipment, Batteries, Lamps",ZHONGSHAN MALL,"AH HOOD ROAD, ZHONGSHAN MALL"
103.9502962,1.368827131,"Bin collection; E-waste accepted: ICT equipment, Batteries, Lamps",CORAL RIS RC - REPAIR KOPITIAM,"565 PASIR RIS ST 51, CORAL RIS RC - REPAIR KOPITIAM"